{"type": "FeatureCollection", "features": [ {"type": "Feature", "properties": {"norad_id": 34833, "name": "IRIDIUM 33 DEB", "group": "iridium-33-debris", "lat": 24.03051951688752, "lon": -131.46291259214414, "alt_km": 710.4477258954039, "timestamp": "2025-12-14T16:47:41.068000+00:00", "meta": {"OBJECT_NAME": "IRIDIUM 33 DEB", "OBJECT_ID": "1997-051MH", "EPOCH": "2025-12-13T22:09:59.109984", "MEAN_MOTION": 14.52388972, "ECCENTRICITY": 0.00217469, "INCLINATION": 86.3931, "RA_OF_ASC_NODE": 50.4831, "ARG_OF_PERICENTER": 94.8906, "MEAN_ANOMALY": 324.9644, "EPHEMERIS_TYPE": 0, "CLASSIFICATION_TYPE": "U", "NORAD_CAT_ID": 34833, "ELEMENT_SET_NO": 999, "REV_AT_EPOCH": 87732, "BSTAR": 0.00092988683, "MEAN_MOTION_DOT": 3.818e-05, "MEAN_MOTION_DDOT": 0}, "tle": {"line1": "1 34833U 97051MH  25347.92360081  .00003818  00000+0  92989-3 0  9992", "line2": "2 34833  86.3931  50.4831 0021746  94.8906 324.9644 14.52388972877328"}}, "geometry": {"type": "Point", "coordinates": [-131.46291259214414, 24.03051951688752]}}, {"type": "Feature", "properties": {"norad_id": 34870, "name": "IRIDIUM 33 DEB", "group": "iridium-33-debris", "lat": -62.42012067595413, "lon": -53.9106366957481, "alt_km": 653.7821970838258, "timestamp": "2025-12-14T16:47:41.068010+00:00", "meta": {"OBJECT_NAME": "IRIDIUM 33 DEB", "OBJECT_ID": "1997-051MQ", "EPOCH": "2025-12-13T15:51:00.242208", "MEAN_MOTION": 14.76459498, "ECCENTRICITY": 0.00163253, "INCLINATION": 86.31, "RA_OF_ASC_NODE": 313.6624, "ARG_OF_PERICENTER": 179.046, "MEAN_ANOMALY": 357.3162, "EPHEMERIS_TYPE": 0, "CLASSIFICATION_TYPE": "U", "NORAD_CAT_ID": 34870, "ELEMENT_SET_NO": 999, "REV_AT_EPOCH": 88924, "BSTAR": 0.0017247419, "MEAN_MOTION_DOT": 0.00012059, "MEAN_MOTION_DDOT": 0}, "tle": {"line1": "1 34870U 97051MQ  25347.66041947  .00012059  00000+0  17247-2 0  9991", "line2": "2 34870  86.3100 313.6624 0016325 179.0460 357.3162 14.76459498889246"}}, "geometry": {"type": "Point", "coordinates": [-53.9106366957481, -62.42012067595413]}}, {"type": "Feature", "properties": {"norad_id": 34896, "name": "IRIDIUM 33 DEB", "group": "iridium-33-debris", "lat": 66.25350403190669, "lon": -25.80169910299874, "alt_km": 679.8606896883439, "timestamp": "2025-12-14T16:47:41.068024+00:00", "meta": {"OBJECT_NAME": "IRIDIUM 33 DEB", "OBJECT_ID": "1997-051MY", "EPOCH": "2025-12-13T16:42:42.386688", "MEAN_MOTION": 14.66293467, "ECCENTRICITY": 0.00244205, "INCLINATION": 86.3286, "RA_OF_ASC_NODE": 326.256, "ARG_OF_PERICENTER": 210.8837, "MEAN_ANOMALY": 322.3766, "EPHEMERIS_TYPE": 0, "CLASSIFICATION_TYPE": "U", "NORAD_CAT_ID": 34896, "ELEMENT_SET_NO": 999, "REV_AT_EPOCH": 87633, "BSTAR": 0.0011949443, "MEAN_MOTION_DOT": 6.641e-05, "MEAN_MOTION_DDOT": 0}, "tle": {"line1": "1 34896U 97051MY  25347.69632392  .00006641  00000+0  11949-2 0  9995", "line2": "2 34896  86.3286 326.2560 0024420 210.8837 322.3766 14.66293467876334"}}, "geometry": {"type": "Point", "coordinates": [-25.80169910299874, 66.25350403190669]}}, {"type": "Feature", "properties": {"norad_id": 34926, "name": "IRIDIUM 33 DEB", "group": "iridium-33-debris", "lat": 70.25648102264329, "lon": 18.22805039117502, "alt_km": 747.4570172053973, "timestamp": "2025-12-14T16:47:41.068034+00:00", "meta": {"OBJECT_NAME": "IRIDIUM 33 DEB", "OBJECT_ID": "1997-051NF", "EPOCH": "2025-12-12T12:20:13.285824", "MEAN_MOTION": 14.54404213, "ECCENTRICITY": 0.00756259, "INCLINATION": 86.1328, "RA_OF_ASC_NODE": 8.3778, "ARG_OF_PERICENTER": 293.6501, "MEAN_ANOMALY": 219.03, "EPHEMERIS_TYPE": 0, "CLASSIFICATION_TYPE": "U", "NORAD_CAT_ID": 34926, "ELEMENT_SET_NO": 999, "REV_AT_EPOCH": 86453, "BSTAR": 0.0080603055, "MEAN_MOTION_DOT": 0.0003576, "MEAN_MOTION_DDOT": 0}, "tle": {"line1": "1 34926U 97051NF  25346.51404266  .00035760  00000+0  80603-2 0  9993", "line2": "2 34926  86.1328   8.3778 0075625 293.6501 219.0300 14.54404213864537"}}, "geometry": {"type": "Point", "coordinates": [18.22805039117502, 70.25648102264329]}}, {"type": "Feature", "properties": {"norad_id": 34985, "name": "IRIDIUM 33 DEB", "group": "iridium-33-debris", "lat": 72.56122374301084, "lon": -135.6156293669749, "alt_km": 749.0557969879592, "timestamp": "2025-12-14T16:47:41.068045+00:00", "meta": {"OBJECT_NAME": "IRIDIUM 33 DEB", "OBJECT_ID": "1997-051NR", "EPOCH": "2025-12-12T23:13:51.153888", "MEAN_MOTION": 14.42012529, "ECCENTRICITY": 0.00207583, "INCLINATION": 86.37, "RA_OF_ASC_NODE": 56.7821, "ARG_OF_PERICENTER": 219.0302, "MEAN_ANOMALY": 263.5766, "EPHEMERIS_TYPE": 0, "CLASSIFICATION_TYPE": "U", "NORAD_CAT_ID": 34985, "ELEMENT_SET_NO": 999, "REV_AT_EPOCH": 87178, "BSTAR": 0.0010455492, "MEAN_MOTION_DOT": 3.457e-05, "MEAN_MOTION_DDOT": 0}, "tle": {"line1": "1 34985U 97051NR  25346.96795317  .00003457  00000+0  10455-2 0  9993", "line2": "2 34985  86.3700  56.7821 0020758 219.0302 263.5766 14.42012529871789"}}, "geometry": {"type": "Point", "coordinates": [-135.6156293669749, 72.56122374301084]}}, {"type": "Feature", "properties": {"norad_id": 35051, "name": "IRIDIUM 33 DEB", "group": "iridium-33-debris", "lat": 78.75322929682709, "lon": 26.868814502357704, "alt_km": 718.6499552544947, "timestamp": "2025-12-14T16:47:41.068057+00:00", "meta": {"OBJECT_NAME": "IRIDIUM 33 DEB", "OBJECT_ID": "1997-051NX", "EPOCH": "2025-12-11T08:47:57.045408", "MEAN_MOTION": 14.47588957, "ECCENTRICITY": 0.00106566, "INCLINATION": 86.3243, "RA_OF_ASC_NODE": 9.4603, "ARG_OF_PERICENTER": 94.8899, "MEAN_ANOMALY": 265.3522, "EPHEMERIS_TYPE": 0, "CLASSIFICATION_TYPE": "U", "NORAD_CAT_ID": 35051, "ELEMENT_SET_NO": 999, "REV_AT_EPOCH": 86976, "BSTAR": 0.001042299, "MEAN_MOTION_DOT": 3.858e-05, "MEAN_MOTION_DDOT": 0}, "tle": {"line1": "1 35051U 97051NX  25345.36663247  .00003858  00000+0  10423-2 0  9997", "line2": "2 35051  86.3243   9.4603 0010656  94.8899 265.3522 14.47588957869768"}}, "geometry": {"type": "Point", "coordinates": [26.868814502357704, 78.75322929682709]}}, {"type": "Feature", "properties": {"norad_id": 35052, "name": "IRIDIUM 33 DEB", "group": "iridium-33-debris", "lat": 15.354160465794862, "lon": -161.37334393797616, "alt_km": 763.520790399506, "timestamp": "2025-12-14T16:47:41.068067+00:00", "meta": {"OBJECT_NAME": "IRIDIUM 33 DEB", "OBJECT_ID": "1997-051NY", "EPOCH": "2025-12-13T20:00:00.868896", "MEAN_MOTION": 14.38493698, "ECCENTRICITY": 0.00136505, "INCLINATION": 86.331, "RA_OF_ASC_NODE": 20.0075, "ARG_OF_PERICENTER": 82.0555, "MEAN_ANOMALY": 278.2192, "EPHEMERIS_TYPE": 0, "CLASSIFICATION_TYPE": "U", "NORAD_CAT_ID": 35052, "ELEMENT_SET_NO": 999, "REV_AT_EPOCH": 87291, "BSTAR": 0.00024132483, "MEAN_MOTION_DOT": 7.57e-06, "MEAN_MOTION_DDOT": 0}, "tle": {"line1": "1 35052U 97051NY  25347.83334339  .00000757  00000+0  24132-3 0  9997", "line2": "2 35052  86.3310  20.0075 0013650  82.0555 278.2192 14.38493698872915"}}, "geometry": {"type": "Point", "coordinates": [-161.37334393797616, 15.354160465794862]}}, {"type": "Feature", "properties": {"norad_id": 35080, "name": "IRIDIUM 33 DEB", "group": "iridium-33-debris", "lat": -43.91718528367337, "lon": 47.775983291443005, "alt_km": 649.4513741771607, "timestamp": "2025-12-14T16:47:41.068077+00:00", "meta": {"OBJECT_NAME": "IRIDIUM 33 DEB", "OBJECT_ID": "1997-051PF", "EPOCH": "2025-12-13T21:36:18.493920", "MEAN_MOTION": 14.86274724, "ECCENTRICITY": 0.00599858, "INCLINATION": 86.2067, "RA_OF_ASC_NODE": 51.8212, "ARG_OF_PERICENTER": 175.8239, "MEAN_ANOMALY": 184.3499, "EPHEMERIS_TYPE": 0, "CLASSIFICATION_TYPE": "U", "NORAD_CAT_ID": 35080, "ELEMENT_SET_NO": 999, "REV_AT_EPOCH": 69705, "BSTAR": 0.0068670423, "MEAN_MOTION_DOT": 0.0006289, "MEAN_MOTION_DDOT": 0}, "tle": {"line1": "1 35080U 97051PF  25347.90021405  .00062890  00000+0  68670-2 0  9993", "line2": "2 35080  86.2067  51.8212 0059985 175.8239 184.3499 14.86274724697057"}}, "geometry": {"type": "Point", "coordinates": [47.775983291443005, -43.91718528367337]}}, {"type": "Feature", "properties": {"norad_id": 35297, "name": "IRIDIUM 33 DEB", "group": "iridium-33-debris", "lat": 61.51867584384167, "lon": -124.76918475428086, "alt_km": 723.3917389859644, "timestamp": "2025-12-14T16:47:41.068087+00:00", "meta": {"OBJECT_NAME": "IRIDIUM 33 DEB", "OBJECT_ID": "1997-051PM", "EPOCH": "2025-12-12T22:42:20.538720", "MEAN_MOTION": 14.45159336, "ECCENTRICITY": 0.00177378, "INCLINATION": 86.3854, "RA_OF_ASC_NODE": 62.6701, "ARG_OF_PERICENTER": 139.4968, "MEAN_ANOMALY": 220.7558, "EPHEMERIS_TYPE": 0, "CLASSIFICATION_TYPE": "U", "NORAD_CAT_ID": 35297, "ELEMENT_SET_NO": 999, "REV_AT_EPOCH": 70429, "BSTAR": 0.0010165954, "MEAN_MOTION_DOT": 3.583e-05, "MEAN_MOTION_DDOT": 0}, "tle": {"line1": "1 35297U 97051PM  25346.94607105  .00003583  00000+0  10166-2 0  9994", "line2": "2 35297  86.3854  62.6701 0017737 139.4968 220.7558 14.45159336704291"}}, "geometry": {"type": "Point", "coordinates": [-124.76918475428086, 61.51867584384167]}}, {"type": "Feature", "properties": {"norad_id": 35299, "name": "IRIDIUM 33 DEB", "group": "iridium-33-debris", "lat": 20.032864254386045, "lon": 33.68918415292658, "alt_km": 745.25136072025, "timestamp": "2025-12-14T16:47:41.068097+00:00", "meta": {"OBJECT_NAME": "IRIDIUM 33 DEB", "OBJECT_ID": "1997-051PP", "EPOCH": "2025-12-13T21:30:05.373792", "MEAN_MOTION": 14.40869269, "ECCENTRICITY": 0.00589763, "INCLINATION": 86.2887, "RA_OF_ASC_NODE": 32.6829, "ARG_OF_PERICENTER": 98.7178, "MEAN_ANOMALY": 74.9066, "EPHEMERIS_TYPE": 0, "CLASSIFICATION_TYPE": "U", "NORAD_CAT_ID": 35299, "ELEMENT_SET_NO": 999, "REV_AT_EPOCH": 86347, "BSTAR": 0.00094211768, "MEAN_MOTION_DOT": 3.102e-05, "MEAN_MOTION_DDOT": 0}, "tle": {"line1": "1 35299U 97051PP  25347.89589553  .00003102  00000+0  94212-3 0  9999", "line2": "2 35299  86.2887  32.6829 0058976  98.7178  74.9066 14.40869269863473"}}, "geometry": {"type": "Point", "coordinates": [33.68918415292658, 20.032864254386045]}}]}